1 43484U 18048A   25334.99454247  .00000954  00000+0  14345-3 0  9992
2 43484  97.8047  39.6551 0013007  96.4743 263.7949 14.76644615404140
